start=new Date('2023-03-06T00:00:00.000Z').valueOf();
sats=[{"DECAY_DATE":null,"SEMIMAJOR_AXIS":"6917.886","MEAN_ELEMENT_THEORY":"SGP4","MEAN_MOTION_DOT":"0.00000061","FILE":"3852256","OBJECT_ID":"2022-136AY","REF_FRAME":"TEME","EPOCH":"2023-03-05T16:27:56.704608","APOAPSIS":"540.724","ECCENTRICITY":"0.00014060","TLE_LINE1":"1 54097U 22136AY  23064.68607297  .00000061  00000-0  21904-4 0  9996","INCLINATION":"53.2215","GP_ID":"227585478","PERIAPSIS":"538.778","CENTER_NAME":"EARTH","NORAD_CAT_ID":"54097","LAUNCH_DATE":"2022-10-20","MEAN_MOTION":"15.08838178","COUNTRY_CODE":"US","RA_OF_ASC_NODE":"207.0831","OBJECT_NAME":"STARLINK-5197","RCS_SIZE":"LARGE","MEAN_ANOMALY":"278.5225","PERIOD":"95.438","EPHEMERIS_TYPE":"0","SITE":"AFETR","CLASSIFICATION_TYPE":"U","MEAN_MOTION_DDOT":"0.0000000000000","BSTAR":"0.00002190400000","REV_AT_EPOCH":"2127","TLE_LINE2":"2 54097  53.2215 207.0831 0001406  81.5927 278.5225 15.08838178 21271","TIME_SYSTEM":"UTC","OBJECT_TYPE":"PAYLOAD","ARG_OF_PERICENTER":"81.5927","ELEMENT_SET_NO":"999"},{"MEAN_MOTION_DOT":"0.00000614","DECAY_DATE":null,"SEMIMAJOR_AXIS":"6917.876","MEAN_ELEMENT_THEORY":"SGP4","TLE_LINE1":"1 54098U 22136AZ  23064.73615173  .00000614  00000-0  56650-4 0  9995","ECCENTRICITY":"0.00013230","OBJECT_ID":"2022-136AZ","FILE":"3852256","APOAPSIS":"540.657","EPOCH":"2023-03-05T17:40:03.509472","REF_FRAME":"TEME","CENTER_NAME":"EARTH","NORAD_CAT_ID":"54098","GP_ID":"227585238","INCLINATION":"53.2144","PERIAPSIS":"538.826","OBJECT_NAME":"STARLINK-5217","COUNTRY_CODE":"US","MEAN_MOTION":"15.08841345","LAUNCH_DATE":"2022-10-20","RA_OF_ASC_NODE":"231.6353","MEAN_ANOMALY":"274.1368","PERIOD":"95.437","EPHEMERIS_TYPE":"0","RCS_SIZE":"LARGE","MEAN_MOTION_DDOT":"0.0000000000000","CLASSIFICATION_TYPE":"U","SITE":"AFETR","BSTAR":"0.00005665000000","REV_AT_EPOCH":"2093","ELEMENT_SET_NO":"999","TIME_SYSTEM":"UTC","TLE_LINE2":"2 54098  53.2144 231.6353 0001323  85.9776 274.1368 15.08841345 20935","OBJECT_TYPE":"PAYLOAD","ARG_OF_PERICENTER":"85.9776"},{"BSTAR":"0.00082019000000","ELEMENT_SET_NO":"999","ARG_OF_PERICENTER":"90.0407","TLE_LINE2":"2 54099  53.2163 231.5848 0001443  90.0407 270.0750 15.08850184 20937","OBJECT_TYPE":"PAYLOAD","TIME_SYSTEM":"UTC","REV_AT_EPOCH":"2093","RCS_SIZE":"LARGE","EPHEMERIS_TYPE":"0","PERIOD":"95.437","MEAN_ANOMALY":"270.0750","CLASSIFICATION_TYPE":"U","SITE":"AFETR","MEAN_MOTION_DDOT":"0.0000000000000","PERIAPSIS":"538.716","GP_ID":"227584483","INCLINATION":"53.2163","NORAD_CAT_ID":"54099","CENTER_NAME":"EARTH","RA_OF_ASC_NODE":"231.5848","MEAN_MOTION":"15.08850184","COUNTRY_CODE":"US","LAUNCH_DATE":"2022-10-20","OBJECT_NAME":"STARLINK-5198","SEMIMAJOR_AXIS":"6917.849","MEAN_ELEMENT_THEORY":"SGP4","DECAY_DATE":null,"MEAN_MOTION_DOT":"0.00012793","APOAPSIS":"540.713","EPOCH":"2023-03-05T17:29:27.004128","REF_FRAME":"TEME","OBJECT_ID":"2022-136BA","FILE":"3852256","TLE_LINE1":"1 54099U 22136BA  23064.72878477  .00012793  00000-0  82019-3 0  9991","ECCENTRICITY":"0.00014430"},{"MEAN_MOTION_DOT":"0.00005001","SEMIMAJOR_AXIS":"6917.863","MEAN_ELEMENT_THEORY":"SGP4","DECAY_DATE":null,"ECCENTRICITY":"0.00010530","TLE_LINE1":"1 54100U 22136BB  23064.74352038  .00005001  00000-0  33200-3 0  9998","EPOCH":"2023-03-05T17:50:40.160832","REF_FRAME":"TEME","APOAPSIS":"540.457","FILE":"3852256","OBJECT_ID":"2022-136BB","NORAD_CAT_ID":"54100","CENTER_NAME":"EARTH","PERIAPSIS":"539.000","INCLINATION":"53.2147","GP_ID":"227584733","OBJECT_NAME":"STARLINK-5185","RA_OF_ASC_NODE":"231.6801","LAUNCH_DATE":"2022-10-20","MEAN_MOTION":"15.08845534","COUNTRY_CODE":"US","EPHEMERIS_TYPE":"0","PERIOD":"95.437","MEAN_ANOMALY":"269.4578","RCS_SIZE":"LARGE","MEAN_MOTION_DDOT":"0.0000000000000","SITE":"AFETR","CLASSIFICATION_TYPE":"U","BSTAR":"0.00033200000000","TLE_LINE2":"2 54100  53.2147 231.6801 0001053  90.6535 269.4578 15.08845534 20930","OBJECT_TYPE":"PAYLOAD","TIME_SYSTEM":"UTC","ARG_OF_PERICENTER":"90.6535","ELEMENT_SET_NO":"999","REV_AT_EPOCH":"2093"},{"RA_OF_ASC_NODE":"216.7211","COUNTRY_CODE":"US","MEAN_MOTION":"15.08838968","LAUNCH_DATE":"2022-10-20","OBJECT_NAME":"STARLINK-5204","PERIAPSIS":"538.873","GP_ID":"227585001","INCLINATION":"53.2186","NORAD_CAT_ID":"54101","CENTER_NAME":"EARTH","APOAPSIS":"540.624","EPOCH":"2023-03-05T17:51:24.483168","REF_FRAME":"TEME","OBJECT_ID":"2022-136BC","FILE":"3852256","TLE_LINE1":"1 54101U 22136BC  23064.74403337 -.00002627  00000-0 -14705-3 0  9990","ECCENTRICITY":"0.00012660","MEAN_ELEMENT_THEORY":"SGP4","SEMIMAJOR_AXIS":"6917.884","DECAY_DATE":null,"MEAN_MOTION_DOT":"-0.00002627","ELEMENT_SET_NO":"999","TLE_LINE2":"2 54101  53.2186 216.7211 0001266  72.2666 287.8464 15.08838968 21145","TIME_SYSTEM":"UTC","OBJECT_TYPE":"PAYLOAD","ARG_OF_PERICENTER":"72.2666","REV_AT_EPOCH":"2114","BSTAR":"-0.00014705000000","CLASSIFICATION_TYPE":"U","SITE":"AFETR","MEAN_MOTION_DDOT":"0.0000000000000","RCS_SIZE":"LARGE","EPHEMERIS_TYPE":"0","PERIOD":"95.438","MEAN_ANOMALY":"287.8464"},{"MEAN_MOTION_DOT":"0.00007843","SEMIMAJOR_AXIS":"6917.868","MEAN_ELEMENT_THEORY":"SGP4","DECAY_DATE":null,"ECCENTRICITY":"0.00013920","TLE_LINE1":"1 54102U 22136BD  23064.73246893  .00007843  00000-0  51025-3 0  9991","APOAPSIS":"540.696","REF_FRAME":"TEME","EPOCH":"2023-03-05T17:34:45.315552","OBJECT_ID":"2022-136BD","FILE":"3852256","NORAD_CAT_ID":"54102","CENTER_NAME":"EARTH","PERIAPSIS":"538.770","GP_ID":"227585716","INCLINATION":"53.2162","OBJECT_NAME":"STARLINK-5179","RA_OF_ASC_NODE":"231.6060","COUNTRY_CODE":"US","MEAN_MOTION":"15.08843911","LAUNCH_DATE":"2022-10-20","PERIOD":"95.437","EPHEMERIS_TYPE":"0","MEAN_ANOMALY":"274.3255","RCS_SIZE":"LARGE","MEAN_MOTION_DDOT":"0.0000000000000","CLASSIFICATION_TYPE":"U","SITE":"AFETR","BSTAR":"0.00051025000000","ELEMENT_SET_NO":"999","ARG_OF_PERICENTER":"85.7897","TLE_LINE2":"2 54102  53.2162 231.6060 0001392  85.7897 274.3255 15.08843911 20932","OBJECT_TYPE":"PAYLOAD","TIME_SYSTEM":"UTC","REV_AT_EPOCH":"2093"},{"ELEMENT_SET_NO":"999","ARG_OF_PERICENTER":"98.7450","TLE_LINE2":"2 54103  53.2203 212.2202 0001364  98.7450 261.3697 15.08833795 21206","OBJECT_TYPE":"PAYLOAD","TIME_SYSTEM":"UTC","REV_AT_EPOCH":"2120","BSTAR":"-0.00007995600000","MEAN_MOTION_DDOT":"0.0000000000000","CLASSIFICATION_TYPE":"U","SITE":"AFETR","EPHEMERIS_TYPE":"0","PERIOD":"95.438","MEAN_ANOMALY":"261.3697","RCS_SIZE":"LARGE","OBJECT_NAME":"STARLINK-5200","RA_OF_ASC_NODE":"212.2202","COUNTRY_CODE":"US","MEAN_MOTION":"15.08833795","LAUNCH_DATE":"2022-10-20","NORAD_CAT_ID":"54103","CENTER_NAME":"EARTH","PERIAPSIS":"538.821","GP_ID":"227584006","INCLINATION":"53.2203","ECCENTRICITY":"0.00013640","TLE_LINE1":"1 54103U 22136BE  23064.70957524 -.00001560  00000-0 -79956-4 0  9995","APOAPSIS":"540.708","EPOCH":"2023-03-05T17:01:47.300736","REF_FRAME":"TEME","OBJECT_ID":"2022-136BE","FILE":"3852256","MEAN_MOTION_DOT":"-0.00001560","MEAN_ELEMENT_THEORY":"SGP4","SEMIMAJOR_AXIS":"6917.899","DECAY_DATE":null},{"MEAN_MOTION_DDOT":"0.0000000000000","SITE":"AFETR","CLASSIFICATION_TYPE":"U","MEAN_ANOMALY":"164.9217","EPHEMERIS_TYPE":"0","PERIOD":"94.261","RCS_SIZE":"LARGE","REV_AT_EPOCH":"130","TLE_LINE2":"2 54104  53.2096 196.6043 0001351  83.6628 164.9217 15.27676043  1308","OBJECT_TYPE":"PAYLOAD","ARG_OF_PERICENTER":"83.6628","TIME_SYSTEM":"UTC","ELEMENT_SET_NO":"999","BSTAR":"-0.04421100000000","TLE_LINE1":"1 54104U 22136BF  23064.91667824 -.01106890  00000-0 -44211-1 0  9996","ECCENTRICITY":"0.00013510","FILE":"3852256","OBJECT_ID":"2022-136BF","EPOCH":"2023-03-05T22:00:00.999936","REF_FRAME":"TEME","APOAPSIS":"483.690","MEAN_MOTION_DOT":"-0.01106890","DECAY_DATE":null,"SEMIMAJOR_AXIS":"6860.899","MEAN_ELEMENT_THEORY":"SGP4","OBJECT_NAME":"STARLINK-5203","LAUNCH_DATE":"2022-10-20","MEAN_MOTION":"15.27676043","COUNTRY_CODE":"US","RA_OF_ASC_NODE":"196.6043","CENTER_NAME":"EARTH","NORAD_CAT_ID":"54104","INCLINATION":"53.2096","GP_ID":"227584256","PERIAPSIS":"481.837"},{"REV_AT_EPOCH":"1968","ELEMENT_SET_NO":"999","ARG_OF_PERICENTER":"95.6959","TLE_LINE2":"2 54157  53.2146 271.3855 0001206  95.6959 264.4171 15.08818753 19683","OBJECT_TYPE":"PAYLOAD","TIME_SYSTEM":"UTC","BSTAR":"0.00296770000000","CLASSIFICATION_TYPE":"U","SITE":"AFWTR","MEAN_MOTION_DDOT":"0.0000000000000","RCS_SIZE":"LARGE","MEAN_ANOMALY":"264.4171","EPHEMERIS_TYPE":"0","PERIOD":"95.439","COUNTRY_CODE":"US","MEAN_MOTION":"15.08818753","LAUNCH_DATE":"2022-10-28","RA_OF_ASC_NODE":"271.3855","OBJECT_NAME":"STARLINK-5290","GP_ID":"227585007","INCLINATION":"53.2146","PERIAPSIS":"538.976","CENTER_NAME":"EARTH","NORAD_CAT_ID":"54157","OBJECT_ID":"2022-141A","FILE":"3852256","APOAPSIS":"540.645","EPOCH":"2023-03-05T21:17:28.772448","REF_FRAME":"TEME","ECCENTRICITY":"0.00012060","TLE_LINE1":"1 54157U 22141A   23064.88713857  .00047232  00000-0  29677-2 0  9995","DECAY_DATE":null,"MEAN_ELEMENT_THEORY":"SGP4","SEMIMAJOR_AXIS":"6917.945","MEAN_MOTION_DOT":"0.00047232"},{"PERIAPSIS":"538.926","GP_ID":"227585722","INCLINATION":"53.2149","NORAD_CAT_ID":"54158","CENTER_NAME":"EARTH","RA_OF_ASC_NODE":"271.4301","COUNTRY_CODE":"US","MEAN_MOTION":"15.08849734","LAUNCH_DATE":"2022-10-28","OBJECT_NAME":"STARLINK-5297","SEMIMAJOR_AXIS":"6917.851","MEAN_ELEMENT_THEORY":"SGP4","DECAY_DATE":null,"MEAN_MOTION_DOT":"0.00011785","APOAPSIS":"540.505","EPOCH":"2023-03-05T21:28:00.990624","REF_FRAME":"TEME","OBJECT_ID":"2022-141B","FILE":"3852256","TLE_LINE1":"1 54158U 22141B   23064.89445591  .00011785  00000-0  75712-3 0  9990","ECCENTRICITY":"0.00011410","BSTAR":"0.00075712000000","ELEMENT_SET_NO":"999","TLE_LINE2":"2 54158  53.2149 271.4301 0001141  63.9420 296.1690 15.08849734 19684","OBJECT_TYPE":"PAYLOAD","ARG_OF_PERICENTER":"63.9420","TIME_SYSTEM":"UTC","REV_AT_EPOCH":"1968","RCS_SIZE":"LARGE","PERIOD":"95.437","EPHEMERIS_TYPE":"0","MEAN_ANOMALY":"296.1690","CLASSIFICATION_TYPE":"U","SITE":"AFWTR","MEAN_MOTION_DDOT":"0.0000000000000"}];
